TECHSAT 1B (GO-32)      
1 25397U 98043D   26190.68260220  .00000032  00000+0  34171-4 0  9998
2 25397  99.0080 184.0097 0002038 123.5145 236.6227 14.24432637454532
TERRA                   
1 25994U 99068A   26190.27644859  .00000261  00000+0  62003-4 0  9997
2 25994  97.9444 238.9456 0003146 134.5499 298.5628 14.61120751412830
TERRASAR-X              
1 31698U 07026A   26188.47915537  .00000240  00000+0  14624-4 0  9994
2 31698  97.4461 195.8972 0001878  86.9540 273.1909 15.19153986 56300
THEOS                   
1 33396U 08049A   26190.86697372 -.00000174  00000+0 -61883-4 0  9994
2 33396  98.5559 247.4131 0001115  85.2702 274.8603 14.20135272921189
TANDEM-X                
1 36605U 10030A   26188.47915494  .00000386  00000+0  21566-4 0  9992
2 36605  97.4457 195.8973 0001887  94.3019 265.8431 15.19154052889726
SUOMI NPP               
1 37849U 11061A   26190.82556368  .00000030  00000+0  35072-4 0  9994
2 37849  98.7956 131.5475 0000578 252.8200 107.2913 14.19521962761650
SWOT                    
1 54754U 22173A   26190.78215196  .00000016  00000+0  12431-4 0  9998
2 54754  77.6105   4.8057 0000296  75.0538 285.0646 14.00171984182313
TIANMU-1 03             
1 55973U 23039A   26190.80988603  .00011224  00000+0  21701-3 0  9999
2 55973  97.5243   5.6765 0003033  40.1608 319.9866 15.47939272184338
STRIX-7                 
1 69177U 26112A   26190.79300764  .00002568  00000+0  21162-3 0  9991
2 69177  44.9077  73.7070 0024086 177.9650 182.1324 15.01583516  7274
STRIX-8                 
1 69701U 26146A   26190.77486874  .00003037  00000+0  22710-3 0  9998
2 69701  41.9901  43.1189 0008047 346.6171  13.4442 15.04405220  1969
